COSMOS 2413 (712)       
1 28509U 04053B   16021.03532595  .00000074  00000-0  00000+0 0  9998
2 28509  63.1324 195.3733 0005654 162.2537  74.0018  2.13101743 86143
COSMOS 2419 (714)       
1 28915U 05050A   16021.34541791 -.00000023  00000-0  00000+0 0  9994
2 28915  65.2550  83.1598 0014968 346.2615 127.5369  2.13112435 78403
COSMOS 2425 (716)       
1 29670U 06062A   16021.44527310 -.00000074  00000-0  10000-3 0  9990
2 29670  65.6954 322.1200 0023268 342.0887 269.9834  2.13104963 70607
COSMOS 2426 (717)       
1 29671U 06062B   16021.46235156 -.00000074  00000-0  10000-3 0  9997
2 29671  65.7125 322.1978 0015270 171.1485 315.9880  2.13103066 70617
COSMOS 2424 (715)       
1 29672U 06062C   16021.38045440 -.00000074  00000-0  10000-3 0  9994
2 29672  65.6975 322.1315 0014608 169.6564  71.3907  2.13102079 70604
COSMOS 2433 (720)       
1 32275U 07052A   16022.22798619 -.00000017  00000-0  10000-3 0  9991
2 32275  65.2718  82.8958 0003851 255.2451  69.1143  2.13105036 64130
COSMOS 2432 (719)       
1 32276U 07052B   16022.45707928 -.00000015  00000-0  10000-3 0  9998
2 32276  65.2841  82.9514 0011702 330.8611 123.4054  2.13104225 64144
COSMOS 2434 (721)       
1 32393U 07065A   16021.65675451 -.00000073  00000-0  00000+0 0  9997
2 32393  65.3149 321.5060 0001670  94.1223  45.2446  2.13102809 62832
COSMOS 2436 (723)       
1 32395U 07065C   16022.40775770 -.00000071  00000-0  10000-3 0  9991
2 32395  65.3276 321.5206 0018597 348.4298  99.0672  2.13102836 62782
COSMOS 2443 (725)       
1 33379U 08046B   16021.67011637 -.00000021  00000-0  10000-3 0  9992
2 33379  65.2002  82.3460 0018762 188.4382 334.8406  2.13101496 56997
COSMOS 2456 (730)       
1 36111U 09070A   16021.98025505  .00000070  00000-0  00000+0 0  9998
2 36111  64.1867 201.1082 0003537 351.6881 204.6871  2.13102970 47509
COSMOS 2457 (733)       
1 36112U 09070B   16022.32105698  .00000065  00000-0  00000+0 0  9994
2 36112  64.1689 201.0266 0007425 145.3925  83.3938  2.13101615 47514
COSMOS 2458 (734)       
1 36113U 09070C   16022.45353610  .00000063  00000-0  10000-3 0  9991
2 36113  64.1740 201.0270 0003185  61.0101 316.6655  2.13101996 47528
COSMOS 2459 (731)       
1 36400U 10007A   16022.39430632 -.00000016  00000-0  10000-3 0  9994
2 36400  65.1790  82.0600 0027889 350.5479 328.0557  2.13102314 45866
COSMOS 2461 (735)       
1 36401U 10007B   16021.72498825 -.00000020  00000-0  10000-3 0  9994
2 36401  65.1714  82.0657 0004609  75.3939   0.2792  2.13102255 45856
COSMOS 2460 (732)       
1 36402U 10007C   16022.12554843 -.00000017  00000-0  10000-3 0  9999
2 36402  65.1623  82.0303 0001413 241.2246 183.8534  2.13101944 45866
COSMOS 2466 (738)       
1 37137U 10041A   16021.99676887 -.00000073  00000-0  10000-3 0  9992
2 37137  64.8984 321.6712 0018403 157.0954 106.7265  2.13102334 41934
COSMOS 2465 (737)       
1 37138U 10041B   16021.63274086 -.00000074  00000-0  00000+0 0  9995
2 37138  64.9154 321.7543 0032959 170.4907 356.5993  2.13102514 41929
COSMOS 2464 (736)       
1 37139U 10041C   16022.14744832 -.00000073  00000-0  00000+0 0  9993
2 37139  64.9174 321.7290 0022925   8.7265 327.8195  2.13102728 41936
COSMOS 2471 (701K)      
1 37372U 11009A   16021.58316302 -.00000021  00000-0  00000+0 0  9994
2 37372  65.1597  81.9983 0008856 235.2638 265.8144  2.13102982 38123
COSMOS 2474 (742)       
1 37829U 11055A   16021.71340547  .00000075  00000-0  00000+0 0  9993
2 37829  64.5108 201.4687 0005494 248.6011 325.1139  2.13101946 33497
COSMOS 2476 (744)       
1 37867U 11064A   16021.16882637  .00000084  00000-0  00000+0 0  9995
2 37867  64.4913 201.5721 0014323 245.2236 316.4758  2.13102075 32836
COSMOS 2477 (745)       
1 37868U 11064B   16021.40853265  .00000080  00000-0  00000+0 0  9994
2 37868  64.4994 201.6029 0012311 246.4499 318.5451  2.13101951 32797
COSMOS 2475 (743)       
1 37869U 11064C   16022.38969752  .00000065  00000-0  00000+0 0  9995
2 37869  64.5070 201.5559 0017953 278.8135 274.9610  2.13102152 32824
COSMOS 2478 (746)       
1 37938U 11071A   16021.64445314 -.00000021  00000-0  00000+0 0  9994
2 37938  65.1851  82.2155 0014492 240.2364  68.3697  2.13088484 32419
COSMOS 2485 (747)       
1 39155U 13019A   16021.70486326  .00000076  00000-0  00000+0 0  9995
2 39155  64.6602 201.4721 0014684 238.9102  59.2136  2.13102126 21315
COSMOS 2492 (754)       
1 39620U 14012A   16021.65126293 -.00000021  00000-0  10000-3 0  9990
2 39620  65.0504  82.0553 0015659 327.7519 321.9742  2.13103440 14264
COSMOS 2500 (755)       
1 40001U 14032A   16021.85038581 -.00000020  00000-0  00000+0 0  9995
2 40001  64.9912  82.0841 0007304 211.9628  94.5298  2.13102926 12482
COSMOS 2501 (702K)      
1 40315U 14075A   16022.14583258 -.00000074  00000-0  00000+0 0  9998
2 40315  64.6857 323.2322 0017907 241.2207  93.9146  2.13101354  8897
